{"fetched_at":"2026-07-08T07:04:01.102Z","source":"https://celestrak.org/NORAD/elements/gp.php?NAME=JILIN&FORMAT=JSON","constellation":"jilin-1-early","records":[{"OBJECT_NAME":"JILIN-1","OBJECT_ID":"2015-057D","EPOCH":"2026-07-07T19:04:32.690784","CLASSIFICATION_TYPE":"U","MEAN_MOTION":14.78193659,"ECCENTRICITY":0.0016535,"INCLINATION":97.6514,"RA_OF_ASC_NODE":187.139,"ARG_OF_PERICENTER":190.9915,"MEAN_ANOMALY":169.0938,"EPHEMERIS_TYPE":0,"NORAD_CAT_ID":40961,"ELEMENT_SET_NO":999,"REV_AT_EPOCH":57865,"BSTAR":0.00010045,"MEAN_MOTION_DOT":0.00000681,"MEAN_MOTION_DDOT":0},{"OBJECT_NAME":"JILIN-1 03","OBJECT_ID":"2017-002B","EPOCH":"2026-07-07T19:03:32.215104","CLASSIFICATION_TYPE":"U","MEAN_MOTION":15.42098814,"ECCENTRICITY":0.0008024,"INCLINATION":97.1953,"RA_OF_ASC_NODE":195.5941,"ARG_OF_PERICENTER":98.8987,"MEAN_ANOMALY":261.3169,"EPHEMERIS_TYPE":0,"NORAD_CAT_ID":41914,"ELEMENT_SET_NO":999,"REV_AT_EPOCH":52503,"BSTAR":0.00022345,"MEAN_MOTION_DOT":0.00009483,"MEAN_MOTION_DDOT":0},{"OBJECT_NAME":"JILIN-1 04","OBJECT_ID":"2017-074A","EPOCH":"2026-07-07T18:39:49.199328","CLASSIFICATION_TYPE":"U","MEAN_MOTION":15.42995144,"ECCENTRICITY":0.0005169,"INCLINATION":97.4865,"RA_OF_ASC_NODE":298.9481,"ARG_OF_PERICENTER":119.4349,"MEAN_ANOMALY":240.7414,"EPHEMERIS_TYPE":0,"NORAD_CAT_ID":43022,"ELEMENT_SET_NO":999,"REV_AT_EPOCH":47744,"BSTAR":0.00022216,"MEAN_MOTION_DOT":0.00009704,"MEAN_MOTION_DDOT":0},{"OBJECT_NAME":"JILIN-1 05","OBJECT_ID":"2017-074B","EPOCH":"2026-07-07T19:10:36.155712","CLASSIFICATION_TYPE":"U","MEAN_MOTION":15.34206091,"ECCENTRICITY":0.0006063,"INCLINATION":97.4871,"RA_OF_ASC_NODE":295.2376,"ARG_OF_PERICENTER":145.4956,"MEAN_ANOMALY":214.6682,"EPHEMERIS_TYPE":0,"NORAD_CAT_ID":43023,"ELEMENT_SET_NO":999,"REV_AT_EPOCH":47716,"BSTAR":0.00017999,"MEAN_MOTION_DOT":0.0000588,"MEAN_MOTION_DDOT":0},{"OBJECT_NAME":"JILIN-1 06","OBJECT_ID":"2017-074C","EPOCH":"2026-07-07T18:33:57.928032","CLASSIFICATION_TYPE":"U","MEAN_MOTION":15.33940323,"ECCENTRICITY":0.0007536,"INCLINATION":97.4797,"RA_OF_ASC_NODE":292.1942,"ARG_OF_PERICENTER":156.6677,"MEAN_ANOMALY":203.4908,"EPHEMERIS_TYPE":0,"NORAD_CAT_ID":43024,"ELEMENT_SET_NO":999,"REV_AT_EPOCH":47699,"BSTAR":0.00012406,"MEAN_MOTION_DOT":0.00003994,"MEAN_MOTION_DDOT":0},{"OBJECT_NAME":"JILIN-1 07","OBJECT_ID":"2018-008E","EPOCH":"2026-07-07T18:13:25.819104","CLASSIFICATION_TYPE":"U","MEAN_MOTION":15.35078912,"ECCENTRICITY":0.0007596,"INCLINATION":97.177,"RA_OF_ASC_NODE":208.1424,"ARG_OF_PERICENTER":358.1032,"MEAN_ANOMALY":2.0182,"EPHEMERIS_TYPE":0,"NORAD_CAT_ID":43159,"ELEMENT_SET_NO":999,"REV_AT_EPOCH":46815,"BSTAR":0.00018017,"MEAN_MOTION_DOT":0.00006059,"MEAN_MOTION_DDOT":0},{"OBJECT_NAME":"JILIN-1 08","OBJECT_ID":"2018-008F","EPOCH":"2026-07-07T18:34:19.617024","CLASSIFICATION_TYPE":"U","MEAN_MOTION":15.33952218,"ECCENTRICITY":0.0006244,"INCLINATION":97.1805,"RA_OF_ASC_NODE":207.4502,"ARG_OF_PERICENTER":19.5791,"MEAN_ANOMALY":340.5691,"EPHEMERIS_TYPE":0,"NORAD_CAT_ID":43160,"ELEMENT_SET_NO":999,"REV_AT_EPOCH":46810,"BSTAR":0.00013087,"MEAN_MOTION_DOT":0.00004224,"MEAN_MOTION_DDOT":0},{"OBJECT_NAME":"JILIN-1 09","OBJECT_ID":"2019-005B","EPOCH":"2026-07-07T18:39:03.267360","CLASSIFICATION_TYPE":"U","MEAN_MOTION":15.20698812,"ECCENTRICITY":0.0002929,"INCLINATION":97.474,"RA_OF_ASC_NODE":283.5665,"ARG_OF_PERICENTER":52.1673,"MEAN_ANOMALY":307.9827,"EPHEMERIS_TYPE":0,"NORAD_CAT_ID":43943,"ELEMENT_SET_NO":999,"REV_AT_EPOCH":41227,"BSTAR":0.00015162,"MEAN_MOTION_DOT":0.00003263,"MEAN_MOTION_DDOT":0},{"OBJECT_NAME":"JILIN-1 10","OBJECT_ID":"2019-005E","EPOCH":"2026-07-07T18:49:26.893056","CLASSIFICATION_TYPE":"U","MEAN_MOTION":15.25952162,"ECCENTRICITY":0.000783,"INCLINATION":97.4789,"RA_OF_ASC_NODE":287.5922,"ARG_OF_PERICENTER":195.3438,"MEAN_ANOMALY":164.7563,"EPHEMERIS_TYPE":0,"NORAD_CAT_ID":43946,"ELEMENT_SET_NO":999,"REV_AT_EPOCH":41245,"BSTAR":0.00015973,"MEAN_MOTION_DOT":0.00004029,"MEAN_MOTION_DDOT":0}]}
