JILIN-1                 
1 40961U 15057D   26188.79482281  .00000681  00000+0  10045-3 0  9991
2 40961  97.6514 187.1390 0016535 190.9915 169.0938 14.78193659578657
JILIN-1 03              
1 41914U 17002B   26188.79412286  .00009483  00000+0  22345-3 0  9995
2 41914  97.1953 195.5941 0008024  98.8987 261.3169 15.42098814525037
JILIN-1 04              
1 43022U 17074A   26188.77765277  .00009704  00000+0  22216-3 0  9998
2 43022  97.4865 298.9481 0005169 119.4349 240.7414 15.42995144477447
JILIN-1 05              
1 43023U 17074B   26188.79902958  .00005880  00000+0  17999-3 0  9993
2 43023  97.4871 295.2376 0006063 145.4956 214.6682 15.34206091477168
JILIN-1 06              
1 43024U 17074C   26188.77358713  .00003994  00000+0  12406-3 0  9998
2 43024  97.4797 292.1942 0007536 156.6677 203.4908 15.33940323476990
JILIN-1 07              
1 43159U 18008E   26188.75932661  .00006059  00000+0  18017-3 0  9992
2 43159  97.1770 208.1424 0007596 358.1032   2.0182 15.35078912468153
JILIN-1 08              
1 43160U 18008F   26188.77383816  .00004224  00000+0  13087-3 0  9992
2 43160  97.1805 207.4502 0006244  19.5791 340.5691 15.33952218468100
JILIN-1 09              
1 43943U 19005B   26188.77712115  .00003263  00000+0  15162-3 0  9995
2 43943  97.4740 283.5665 0002929  52.1673 307.9827 15.20698812412271
JILIN-1 10              
1 43946U 19005E   26188.78433904  .00004029  00000+0  15973-3 0  9996
2 43946  97.4789 287.5922 0007830 195.3438 164.7563 15.25952162412454
